OBJECT_NAME,OBJECT_ID,EPOCH,MEAN_MOTION,ECCENTRICITY,INCLINATION,RA_OF_ASC_NODE,ARG_OF_PERICENTER,MEAN_ANOMALY,EPHEMERIS_TYPE,CLASSIFICATION_TYPE,NORAD_CAT_ID,ELEMENT_SET_NO,REV_AT_EPOCH,BSTAR,MEAN_MOTION_DOT,MEAN_MOTION_DDOT
PERSEUS-M1,2014-033AF,2026-06-09T08:12:55.575360,14.95609374,.001078,97.9644,104.3459,331.1893,28.8731,0,U,40039,999,64946,.14637E-3,.1566E-4,0
POLYITAN-1,2014-033AJ,2026-06-09T08:24:58.141152,15.32980503,.0008024,98.0953,185.8720,164.0960,196.0533,0,U,40042,999,65239,.53731E-3,.17064E-3,0
TIGRISAT,2014-033AK,2026-06-09T08:49:35.556960,14.85131645,.0050697,97.7823,310.5595,100.1646,260.5292,0,U,40043,999,64446,.24914E-3,.2126E-4,0
AEROCUBE 6A,2014-033AM,2026-06-09T08:12:51.173280,14.98021109,.003935,97.7224,327.3751,44.0714,316.3633,0,U,40045,999,64544,.43491E-3,.516E-4,0
AEROCUBE 6B,2014-033AN,2026-06-09T08:27:13.836672,14.99486502,.0038933,97.7232,327.1573,35.9586,324.4245,0,U,40046,999,64558,.47495E-3,.5861E-4,0
CANX-4,2014-034C,2026-06-09T09:12:18.891936,14.81250099,.001367,98.3132,35.4098,40.8785,319.3448,0,U,40055,999,64337,.11496E-3,.839E-5,0
CANX-5,2014-034D,2026-06-09T09:10:11.342208,14.81267261,.0013681,98.3135,35.4515,41.0004,319.2233,0,U,40056,999,63418,.11623E-3,.85E-5,0
UKUBE-1,2014-037F,2026-06-09T11:58:44.989248,15.13429238,.000215,98.4238,162.9637,144.6961,215.4410,0,U,40074,999,64739,.45635E-3,.8079E-4,0
BRITE-PL2 (HEWELIUSZ),2014-049B,2026-06-09T06:32:05.755776,14.94568700,.0015166,97.9089,272.2120,132.0173,228.2341,0,U,40119,999,64026,.18289E-3,.1922E-4,0
AEROCUBE 5C,2015-058B,2026-06-09T11:01:54.205824,14.91417272,.0130454,64.7678,286.6293,66.3052,295.1686,0,U,40965,999,36450,.21012E-3,.2298E-4,0
AEROCUBE 7,2015-058C,2026-06-09T11:28:21.537120,14.95676629,.0120167,64.7627,268.9615,64.7732,296.5782,0,U,40966,999,36480,.25854E-3,.3152E-4,0
FOX-1A (AO-85),2015-058D,2026-06-09T12:06:49.256064,14.90932457,.0130003,64.7758,302.8578,59.6042,301.7845,0,U,40967,999,11242,.229E-3,.2485E-4,0
SINOD-D 1,2015-058E,2026-06-09T12:34:12.824256,14.95856209,.0118605,64.7759,282.9105,56.1390,305.0942,0,U,40968,999,11551,.25988E-3,.3174E-4,0
SNAP-3 ALICE,2015-058G,2026-06-09T06:49:45.115680,15.58274483,.0030361,64.7496,131.2113,16.9431,343.2720,0,U,40970,999,11565,.13677E-2,.107658E-2,0
LMRST-SAT,2015-058H,2026-06-09T12:36:15.636672,14.90555137,.0131679,64.7764,299.1177,61.6128,299.8185,0,U,40971,999,11241,.21297E-3,.2284E-4,0
SNAP-3 EDDIE,2015-058J,2026-06-09T06:44:21.463008,15.59448461,.0030185,64.7419,122.0068,21.1073,339.1310,0,U,40972,999,11779,.13103E-2,.107828E-2,0
PROPCUBE 3,2015-058K,2026-06-09T10:41:48.221664,14.94213796,.0123688,64.7691,276.7223,62.9743,298.3933,0,U,40973,999,11364,.22112E-3,.2583E-4,0
BISONSAT,2015-058L,2026-06-09T10:44:23.232768,15.16027465,.0078452,64.7591,198.6642,50.4592,310.3430,0,U,40974,999,11444,.42588E-3,.8692E-4,0
SNAP-3 JIMI,2015-058M,2026-06-09T09:36:41.310432,15.02231354,.0105797,64.7650,244.4078,58.5507,302.5900,0,U,40975,999,11305,.27557E-3,.3924E-4,0
PROPCUBE 1 (FLORA),2015-058N,2026-06-08T22:27:35.682624,14.89182375,.01303895,64.7755,320.8090,64.1517,297.2973,0,U,40976,999,11503,.22786041E-3,.2356E-4,0
SINOD-D 3,2015-058P,2026-06-09T11:25:36.481152,14.93967000,.0118894,64.7734,299.8976,61.2015,300.0976,0,U,40977,999,11360,.27451E-3,.3192E-4,0
HORYU-4,2016-012D,2026-06-09T07:01:20.100000,15.90004490,.0003255,30.9844,136.7554,219.0732,140.9693,0,U,41340,999,56955,.10049E-2,.328479E-2,0
RAVAN,2016-067B,2026-06-09T10:43:38.950176,15.53933589,.0005563,97.9901,49.1286,52.3826,307.7930,0,U,41849,999,52649,.7024E-3,.4541E-3,0
CELTEE 1,2016-067C,2026-06-09T08:54:49.830912,15.19605176,.0000638,98.0677,26.4054,110.8167,249.3134,0,U,41850,999,52469,.23578E-3,.4943E-4,0
OPTICUBE 04,2016-067D,2026-06-09T09:22:15.623040,15.09627582,.001652,98.0713,12.2676,140.0795,220.1651,0,U,41851,999,52399,.14206E-3,.222E-4,0
AEROCUBE 8D,2016-067E,2026-06-09T01:57:16.253568,15.24283465,.00042239,98.0697,29.6364,143.3321,216.8204,0,U,41852,999,52483,.24290505E-3,.5853E-4,0
AEROCUBE 8C,2016-067F,2026-06-09T08:53:12.746688,15.24534072,.0006818,98.0570,27.1850,89.9897,270.2120,0,U,41853,999,52487,.2867E-3,.6979E-4,0
CORVUS BC2,2017-042X,2026-06-08T21:22:58.621728,15.06243536,.00142172,97.4057,321.5648,135.9338,224.3026,0,U,42846,999,48581,.19451319E-3,.28E-4,0
CORVUS BC1,2017-042Y,2026-06-09T10:01:47.000640,15.06412944,.0013262,97.4082,322.8801,112.9498,247.3131,0,U,42847,999,48592,.18014E-3,.26E-4,0
MAKERSAT 0,2017-073D,2026-06-09T09:46:19.609824,15.31822725,.010584,97.4644,42.8658,301.2002,57.8898,0,U,43016,999,46527,.49467E-3,.18066E-3,0
