PERSEUS-M1              
1 40039U 14033AF  26160.34230990  .00001566  00000+0  14637-3 0  9993
2 40039  97.9644 104.3459 0010780 331.1893  28.8731 14.95609374649463
POLYITAN-1              
1 40042U 14033AJ  26160.35067293  .00017064  00000+0  53731-3 0  9990
2 40042  98.0953 185.8720 0008024 164.0960 196.0533 15.32980503652395
TIGRISAT                
1 40043U 14033AK  26160.36777265  .00002126  00000+0  24914-3 0  9993
2 40043  97.7823 310.5595 0050697 100.1646 260.5292 14.85131645644460
AEROCUBE 6A             
1 40045U 14033AM  26160.34225895  .00005160  00000+0  43491-3 0  9992
2 40045  97.7224 327.3751 0039350  44.0714 316.3633 14.98021109645447
AEROCUBE 6B             
1 40046U 14033AN  26160.35224348  .00005861  00000+0  47495-3 0  9992
2 40046  97.7232 327.1573 0038933  35.9586 324.4245 14.99486502645586
CANX-4                  
1 40055U 14034C   26160.38355199  .00000839  00000+0  11496-3 0  9997
2 40055  98.3132  35.4098 0013670  40.8785 319.3448 14.81250099643374
CANX-5                  
1 40056U 14034D   26160.38207572  .00000850  00000+0  11623-3 0  9994
2 40056  98.3135  35.4515 0013681  41.0004 319.2233 14.81267261634180
UKUBE-1                 
1 40074U 14037F   26160.49913182  .00008079  00000+0  45635-3 0  9991
2 40074  98.4238 162.9637 0002150 144.6961 215.4410 15.13429238647398
BRITE-PL2 (HEWELIUSZ)   
1 40119U 14049B   26160.27228884  .00001922  00000+0  18289-3 0  9993
2 40119  97.9089 272.2120 0015166 132.0173 228.2341 14.94568700640265
AEROCUBE 5C             
1 40965U 15058B   26160.45965516  .00002298  00000+0  21012-3 0  9998
2 40965  64.7678 286.6293 0130454  66.3052 295.1686 14.91417272364502
AEROCUBE 7              
1 40966U 15058C   26160.47802705  .00003152  00000+0  25854-3 0  9999
2 40966  64.7627 268.9615 0120167  64.7732 296.5782 14.95676629364807
FOX-1A (AO-85)          
1 40967U 15058D   26160.50473676  .00002485  00000+0  22900-3 0  9992
2 40967  64.7758 302.8578 0130003  59.6042 301.7845 14.90932457112423
SINOD-D 1               
1 40968U 15058E   26160.52375954  .00003174  00000+0  25988-3 0  9990
2 40968  64.7759 282.9105 0118605  56.1390 305.0942 14.95856209115514
SNAP-3 ALICE            
1 40970U 15058G   26160.28454995  .00107658  00000+0  13677-2 0  9992
2 40970  64.7496 131.2113 0030361  16.9431 343.2720 15.58274483115653
LMRST-SAT               
1 40971U 15058H   26160.52518098  .00002284  00000+0  21297-3 0  9992
2 40971  64.7764 299.1177 0131679  61.6128 299.8185 14.90555137112415
SNAP-3 EDDIE            
1 40972U 15058J   26160.28080397  .00107828  00000+0  13103-2 0  9998
2 40972  64.7419 122.0068 0030185  21.1073 339.1310 15.59448461117797
PROPCUBE 3              
1 40973U 15058K   26160.44569701  .00002583  00000+0  22112-3 0  9991
2 40973  64.7691 276.7223 0123688  62.9743 298.3933 14.94213796113644
BISONSAT                
1 40974U 15058L   26160.44749112  .00008692  00000+0  42588-3 0  9994
2 40974  64.7591 198.6642 0078452  50.4592 310.3430 15.16027465114440
SNAP-3 JIMI             
1 40975U 15058M   26160.40047813  .00003924  00000+0  27557-3 0  9992
2 40975  64.7650 244.4078 0105797  58.5507 302.5900 15.02231354113058
PROPCUBE 1 (FLORA)      
1 40976U 15058N   26159.93582966  .00002356  00000+0  22786-3 0  9999
2 40976  64.7755 320.8090 0130389  64.1517 297.2973 14.89182375115039
SINOD-D 3               
1 40977U 15058P   26160.47611668  .00003192  00000+0  27451-3 0  9996
2 40977  64.7734 299.8976 0118894  61.2015 300.0976 14.93967000113601
HORYU-4                 
1 41340U 16012D   26160.29259375  .00328479  00000+0  10049-2 0  9997
2 41340  30.9844 136.7554 0003255 219.0732 140.9693 15.90004490569556
RAVAN                   
1 41849U 16067B   26160.44697859  .00045410  00000+0  70240-3 0  9992
2 41849  97.9901  49.1286 0005563  52.3826 307.7930 15.53933589526494
CELTEE 1                
1 41850U 16067C   26160.37141008  .00004943  00000+0  23578-3 0  9994
2 41850  98.0677  26.4054 0000638 110.8167 249.3134 15.19605176524692
OPTICUBE 04             
1 41851U 16067D   26160.39045860  .00002220  00000+0  14206-3 0  9990
2 41851  98.0713  12.2676 0016520 140.0795 220.1651 15.09627582523993
AEROCUBE 8D             
1 41852U 16067E   26160.08143812  .00005853  00000+0  24291-3 0  9993
2 41852  98.0697  29.6364 0004223 143.3321 216.8204 15.24283465524834
AEROCUBE 8C             
1 41853U 16067F   26160.37028642  .00006979  00000+0  28670-3 0  9994
2 41853  98.0570  27.1850 0006818  89.9897 270.2120 15.24534072524871
CORVUS BC2              
1 42846U 17042X   26159.89095627  .00002800  00000+0  19451-3 0  9999
2 42846  97.4057 321.5648 0014217 135.9338 224.3026 15.06243536485814
CORVUS BC1              
1 42847U 17042Y   26160.41790510  .00002600  00000+0  18014-3 0  9995
2 42847  97.4082 322.8801 0013262 112.9498 247.3131 15.06412944485924
MAKERSAT 0              
1 43016U 17073D   26160.40717141  .00018066  00000+0  49467-3 0  9995
2 43016  97.4644  42.8658 0105840 301.2002  57.8898 15.31822725465274
